STARLINK-3043           
1 49179U 21082BB  21285.25001157  .00051507  00000-0  43074-3 0  9991
2 49179  70.0018  47.7320 0003858 275.6346 295.0983 15.69739230  4520
STARLINK-3050           
1 49180U 21082BC  21284.91667824 -.00091181  00000-0 -76833-3 0  9997
2 49180  70.0011  48.6618 0003592 283.2848 210.7447 15.69811125  3681
STARLINK-3059           
1 49181U 21082BD  21284.91667824 -.00086894  00000-0 -73236-3 0  9997
2 49181  70.0000  48.6588 0003900 285.4236 210.7663 15.69788989  3685
ONEWEB-0292             
1 49186U 21083A   21285.58334491 -.01059867  00000-0 -93438-1 0  9993
2 49186  87.2407 318.3824 0018854 200.4240 262.4258 14.99318601  5528
ONEWEB-0303             
1 49187U 21083B   21285.25001157 -.01154319  00000-0 -10953+0 0  9995
2 49187  87.4797 318.8166 0017227 203.9367 272.0275 14.96785409  5468
ONEWEB-0306             
1 49188U 21083C   21285.58334491 -.01109539  00000-0 -10110+0 0  9991
2 49188  87.4832 318.6833 0021273 196.6747 101.5098 14.98141087  5519
ONEWEB-0307             
1 49189U 21083D   21285.58334491 -.01058524  00000-0 -96387-1 0  9991
2 49189  87.2395 318.3916 0017322 194.3701 149.3244 14.98104008  5522
ONEWEB-0320             
1 49190U 21083E   21285.58334491 -.01110325  00000-0 -10824+0 0  9991
2 49190  87.4855 318.7089 0017066 199.5505 229.8829 14.95615721  5503
ONEWEB-0321             
1 49191U 21083F   21285.58334491 -.01039326  00000-0 -90584-1 0  9996
2 49191  87.2397 318.3764 0019757 199.1712 324.9058 14.99681412  5532
ONEWEB-0322             
1 49192U 21083G   21285.58334491 -.01061978  00000-0 -95312-1 0  9999
2 49192  87.2394 318.3824 0018011 202.7802 249.5222 14.98656603  5527
ONEWEB-0324             
1 49193U 21083H   21285.25001157 -.01154761  00000-0 -10921+0 0  9998
2 49193  87.4806 318.8047 0018955 203.9930 315.8956 14.96881474  5460
ONEWEB-0325             
1 49194U 21083J   21285.25001157 -.01172274  00000-0 -11255+0 0  9999
2 49194  87.4746 318.8049 0017535 199.9036 247.7720 14.96374969  5457
ONEWEB-0326             
1 49195U 21083K   21285.58334491 -.01118778  00000-0 -10266+0 0  9996
2 49195  87.4773 318.6731 0021549 193.9755 101.5014 14.97890889  5511
ONEWEB-0327             
1 49196U 21083L   21285.25001157 -.01123533  00000-0 -10669+0 0  9993
2 49196  87.4996 318.8198 0020799 200.2591 327.9638 14.96598512  5461
ONEWEB-0328             
1 49197U 21083M   21285.25001157 -.01126501  00000-0 -99411-1 0  9996
2 49197  87.2428 318.5015 0017455 201.8574 230.1478 14.99491340  5470
ONEWEB-0331             
1 49198U 21083N   21285.25001157 -.01113750  00000-0 -98148-1 0  9995
2 49198  87.4333 318.7410 0020831 203.3651  44.7812 14.99441860  5466
ONEWEB-0333             
1 49199U 21083P   21285.58334491 -.01067623  00000-0 -97959-1 0  9998
2 49199  87.2407 318.3961 0017115 199.9885 199.0879 14.97839921  5525
ONEWEB-0334             
1 49200U 21083Q   21285.25001157 -.01127226  00000-0 -95924-1 0  9991
2 49200  87.2397 318.4781 0020367 192.3378  30.8861 15.00817890  5488
ONEWEB-0335             
1 49201U 21083R   21285.58334491 -.01052346  00000-0 -10120+0 0  9991
2 49201  87.2336 318.4086 0020802 189.8302  23.2774 14.95908996  5527
ONEWEB-0336             
1 49202U 21083S   21285.58334491 -.01062338  00000-0 -10041+0 0  9996
2 49202  87.2339 318.3999 0018516 187.4631  91.7516 14.96653173  5520
ONEWEB-0337             
1 49203U 21083T   21285.25001157 -.01092097  00000-0 -95434-1 0  9997
2 49203  87.2460 318.5221 0020699 193.0601  35.9869 14.99706041  5472
ONEWEB-0338             
1 49204U 21083U   21285.58334491 -.01061916  00000-0 -95184-1 0  9992
2 49204  87.2375 318.3775 0019370 199.3467 277.1397 14.98679340  5536
ONEWEB-0339             
1 49205U 21083V   21285.58334491 -.01070631  00000-0 -99883-1 0  9997
2 49205  87.2355 318.3909 0018289 192.7989 129.3633 14.97184968  5524
ONEWEB-0340             
1 49206U 21083W   21285.25001157 -.01165700  00000-0 -10852+0 0  9991
2 49206  87.4756 318.7977 0017666 203.4362 319.8816 14.97545747  5462
ONEWEB-0341             
1 49207U 21083X   21285.58334491 -.01111586  00000-0 -10582+0 0  9991
2 49207  87.4794 318.6900 0019035 202.5351 335.0549 14.96504074  5516
ONEWEB-0342             
1 49208U 21083Y   21285.58334491 -.01055837  00000-0 -89809-1 0  9998
2 49208  87.2413 318.3686 0020880 187.8549  62.3602 15.00629762  5535
ONEWEB-0343             
1 49209U 21083Z   21285.58334491 -.01039911  00000-0 -92116-1 0  9999
2 49209  87.4488 318.6573 0021369 196.8803  97.7359 14.99030092  5512
ONEWEB-0344             
1 49210U 21083AA  21285.58334491 -.01069485  00000-0 -10350+0 0  9998
2 49210  87.2286 318.3975 0019934 190.1687  33.3022 14.95729468  5525
ONEWEB-0345             
1 49211U 21083AB  21285.58334491 -.01064499  00000-0 -10128+0 0  9992
2 49211  87.2327 318.4016 0019521 190.9085  64.3360 14.96384131  5525
ONEWEB-0346             
1 49212U 21083AC  21285.58334491 -.01106708  00000-0 -10666+0 0  9990
2 49212  87.4840 318.6998 0018147 203.8716 288.0927 14.96030242  5511
ONEWEB-0348             
1 49213U 21083AD  21285.58334491 -.01044267  00000-0 -89038-1 0  9993
2 49213  87.2436 318.3784 0020427 192.5705  24.6025 15.00516878  5532
ONEWEB-0350             
1 49214U 21083AE  21285.58334491 -.01074355  00000-0 -10051+0 0  9992
2 49214  87.2366 318.3946 0017012 196.5026 148.6016 14.97111395  5527
ONEWEB-0351             
1 49215U 21083AF  21285.58334491 -.01055247  00000-0 -88004-1 0  9997
2 49215  87.2407 318.3558 0018424 182.2964 152.5272 15.01426319  5545
ONEWEB-0352             
1 49216U 21083AG  21285.58334491 -.01079873  00000-0 -10182+0 0  9999
2 49216  87.2354 318.4001 0017803 193.8417 123.8552 14.96809789  5521
ONEWEB-0354             
1 49217U 21083AH  21285.25001157 -.01123062  00000-0 -83596-1 0  9995
2 49217  87.2623 318.4835 0018550 184.4056 326.4748 15.05855113  5500
ONEWEB-0355             
1 49218U 21083AJ  21285.58334491 -.01068614  00000-0 -98285-1 0  9994
2 49218  87.2365 318.3819 0016863 198.8550 181.4746 14.97755004  5525
ONEWEB-0357             
1 49219U 21083AK  21285.25001157 -.01134945  00000-0 -97561-1 0  9996
2 49219  87.2409 318.4877 0019566 197.0553 354.4757 15.00472630  5482
SZ-12 MODULE            
1 49221U 21053C   21285.42483816  .00013598  00000-0  16449-3 0  9996
2 49221  41.5565 288.5221 0003682 119.0749 241.0460 15.60440207  3935
TIANZHOU-3              
1 49222U 21085A   21284.07012742 -.00128476  00000-0 -14919-2 0  9991
2 49222  41.4699 296.2803 0001255 281.6527 132.9530 15.61243987 25824
JILIN-01 GAOFEN 2D      
1 49256U 21086A   21285.56743351  .00001681  00000-0  10948-3 0  9996
2 49256  97.5416  31.1771 0011143 209.7808 209.7104 15.09244692  2315
SHIYAN 10 (SY-10)       
1 49258U 21087A   21285.40198609  .00006301  13552-5  35770-3 0  9997
2 49258  51.0387  75.9535 7529515 227.7110  85.4291  2.01149916   329
LANDSAT 9               
1 49260U 21088A   21285.15366063  .00000363  00000-0  78032-4 0  9994
2 49260  98.2181 353.7513 0011258 239.5130 120.4993 14.64256438  2103
CUTE                    
1 49263U 21088D   21285.19876892  .00001793  00000-0  14247-3 0  9992
2 49263  97.6240 352.9684 0017368 198.6665 161.3925 15.01604613  2159
SOYUZ-MS 19             
1 49269U 21089A   21284.56132551  .00002909  00000-0  61006-4 0  9992
2 49269  51.6421 127.2980 0004165  80.9757 320.6996 15.48970684306637
1998-067SR              
1 49272U 98067SR  21284.80888337  .00015347  00000-0  27715-3 0  9991
2 49272  51.6411 126.0424 0005784 117.1796 242.9783 15.49908182   933
1998-067SS              
1 49273U 98067SS  21284.93791278  .00019173  00000-0  34409-3 0  9992
2 49273  51.6413 125.4040 0005635 116.6392 243.5174 15.49907359   952
1998-067ST              
1 49274U 98067ST  21284.93803622  .00018947  00000-0  34058-3 0  9998
2 49274  51.6410 125.4051 0005518 115.3718 244.7843 15.49871989   955
CUAVA-1                 
1 49275U 98067SU  21285.00206795  .00018083  00000-0  32395-3 0  9999
2 49275  51.6409 125.0826 0005623 123.9620 236.1904 15.50002444   917
